{"type":"FeatureCollection","features":[{"type":"Feature","properties":{"mode":"bus","n":5,"arr":["1","20","20A","21","21A"],"lines":"1, 20, 20A, 21, 21A"},"geometry":{"type":"LineString","coordinates":[[21.999007,43.300396],[21.998984,43.300369]]}},{"type":"Feature","properties":{"mode":"bus","n":6,"arr":["1","18","20","20A","21","21A"],"lines":"1, 18, 20, 20A, 21, 21A"},"geometry":{"type":"LineString","coordinates":[[21.999001,43.300539],[21.998898,43.300606],[21.99876,43.300612],[21.99864,43.300549],[21.99862,43.300513],[21.998605,43.300497],[21.998582,43.300487],[21.998484,43.300463],[21.996706,43.300341],[21.995588,43.300328],[21.994486,43.300434],[21.993938,43.300505],[21.982972,43.302475]]}},{"type":"Feature","properties":{"mode":"bus","n":8,"arr":["1","3","18","20","20A","21","21A","37"],"lines":"1, 3, 18, 20, 20A, 21, 21A, 37"},"geometry":{"type":"LineString","coordinates":[[21.966366,43.305345],[21.966313,43.305412],[21.966253,43.305441]]}},{"type":"Feature","properties":{"mode":"bus","n":8,"arr":["1","3","18","20","20A","21","21A","37"],"lines":"1, 3, 18, 20, 20A, 21, 21A, 37"},"geometry":{"type":"LineString","coordinates":[[21.94816,43.308269],[21.948027,43.308323],[21.947885,43.308295],[21.947705,43.308319],[21.947334,43.308398],[21.937727,43.309957]]}},{"type":"Feature","properties":{"mode":"bus","n":8,"arr":["1","3","18","20","20A","21","21A","37"],"lines":"1, 3, 18, 20, 20A, 21, 21A, 37"},"geometry":{"type":"LineString","coordinates":[[21.935356,43.310489],[21.935275,43.310595],[21.935099,43.310653],[21.935001,43.310646],[21.934848,43.31057]]}},{"type":"Feature","properties":{"mode":"bus","n":7,"arr":["1","18","20","20A","21","21A","37"],"lines":"1, 18, 20, 20A, 21, 21A, 37"},"geometry":{"type":"LineString","coordinates":[[21.966253,43.305441],[21.966132,43.305447],[21.966039,43.305408]]}},{"type":"Feature","properties":{"mode":"bus","n":7,"arr":["1","18","20","20A","21","21A","37"],"lines":"1, 18, 20, 20A, 21, 21A, 37"},"geometry":{"type":"LineString","coordinates":[[21.982972,43.302475],[21.980201,43.302977]]}},{"type":"Feature","properties":{"mode":"bus","n":12,"arr":["1","3","4","10","13","18","20","20A","21","21A","34A","37"],"lines":"1, 3, 4, 10, 13, 18, 20, 20A, 21, 21A, 34A, 37"},"geometry":{"type":"LineString","coordinates":[[21.927898,43.311617],[21.927894,43.311669],[21.92782,43.311755]]}},{"type":"Feature","properties":{"mode":"bus","n":9,"arr":["1","3","10","18","20","20A","21","21A","37"],"lines":"1, 3, 10, 18, 20, 20A, 21, 21A, 37"},"geometry":{"type":"LineString","coordinates":[[21.927575,43.311769],[21.9277,43.31179],[21.92782,43.311755]]}},{"type":"Feature","properties":{"mode":"bus","n":12,"arr":["1","3","4","10","13","18","20","20A","21","21A","34B","37"],"lines":"1, 3, 4, 10, 13, 18, 20, 20A, 21, 21A, 34B, 37"},"geometry":{"type":"LineString","coordinates":[[21.927478,43.311682],[21.927575,43.311769]]}},{"type":"Feature","properties":{"mode":"bus","n":9,"arr":["1","10","25","26","33","33P","35","36","36A"],"lines":"1, 10, 25, 26, 33, 33P, 35, 36, 36A"},"geometry":{"type":"LineString","coordinates":[[21.864051,43.315313],[21.864157,43.315356],[21.864257,43.315356],[21.864395,43.315286]]}},{"type":"Feature","properties":{"mode":"bus","n":7,"arr":["1","10","26","33","33P","36","36A"],"lines":"1, 10, 26, 33, 33P, 36, 36A"},"geometry":{"type":"LineString","coordinates":[[21.855017,43.316021],[21.855139,43.316053],[21.855242,43.316025],[21.855882,43.315999],[21.856022,43.315973]]}},{"type":"Feature","properties":{"mode":"bus","n":7,"arr":["1","10","26","33","33P","36","36A"],"lines":"1, 10, 26, 33, 33P, 36, 36A"},"geometry":{"type":"LineString","coordinates":[[21.863653,43.315325],[21.864051,43.315313]]}},{"type":"Feature","properties":{"mode":"bus","n":6,"arr":["1","10","33","36","36A","37"],"lines":"1, 10, 33, 36, 36A, 37"},"geometry":{"type":"LineString","coordinates":[[21.855043,43.315819],[21.854969,43.315886]]}},{"type":"Feature","properties":{"mode":"bus","n":6,"arr":["1","10","33","36","36A","37"],"lines":"1, 10, 33, 36, 36A, 37"},"geometry":{"type":"LineString","coordinates":[[21.855255,43.315838],[21.855283,43.315865],[21.855467,43.315918],[21.856022,43.315973]]}},{"type":"Feature","properties":{"mode":"bus","n":6,"arr":["1","10","33","36","36A","37"],"lines":"1, 10, 33, 36, 36A, 37"},"geometry":{"type":"LineString","coordinates":[[21.864081,43.315068],[21.864251,43.315043],[21.864356,43.315082]]}},{"type":"Feature","properties":{"mode":"bus","n":6,"arr":["1","10","33","36","36A","37"],"lines":"1, 10, 33, 36, 36A, 37"},"geometry":{"type":"LineString","coordinates":[[21.863987,43.315192],[21.863653,43.315325]]}},{"type":"Feature","properties":{"mode":"bus","n":8,"arr":["1","10","25","33","35","36","36A","37"],"lines":"1, 10, 25, 33, 35, 36, 36A, 37"},"geometry":{"type":"LineString","coordinates":[[21.863987,43.315192],[21.864014,43.315122],[21.864081,43.315068]]}},{"type":"Feature","properties":{"mode":"bus","n":7,"arr":["1","10","25","33","36","36A","37"],"lines":"1, 10, 25, 33, 36, 36A, 37"},"geometry":{"type":"LineString","coordinates":[[21.864356,43.315082],[21.864407,43.315132],[21.864507,43.315147],[21.865532,43.315162],[21.865773,43.315192]]}},{"type":"Feature","properties":{"mode":"bus","n":21,"arr":["1","2","4","6","8","9","10","11","12","24","25","27A","27B","28","28A","29A","33","34B","36","36A","37"],"lines":"1, 2, 4, 6, 8, 9, 10, 11, 12, 24, 25, 27A, 27B, 28, 28A, 29A, 33, 34B, 36, 36A, 37"},"geometry":{"type":"LineString","coordinates":[[21.890369,43.317598],[21.890258,43.317674],[21.890158,43.317954]]}},{"type":"Feature","properties":{"mode":"bus","n":17,"arr":["1","6","9","10","11","12","25","27A","27B","28","28A","29A","33","34B","36","36A","37"],"lines":"1, 6, 9, 10, 11, 12, 25, 27A, 27B, 28, 28A, 29A, 33, 34B, 36, 36A, 37"},"geometry":{"type":"LineString","coordinates":[[21.891476,43.317767],[21.890472,43.317588],[21.890369,43.317598]]}},{"type":"Feature","properties":{"mode":"bus","n":16,"arr":["1","2","6","10","11","25","27A","27B","28","28A","29A","33","34B","36","36A","37"],"lines":"1, 2, 6, 10, 11, 25, 27A, 27B, 28, 28A, 29A, 33, 34B, 36, 36A, 37"},"geometry":{"type":"LineString","coordinates":[[21.891877,43.317943],[21.89177,43.317847],[21.891476,43.317767]]}},{"type":"Feature","properties":{"mode":"bus","n":20,"arr":["1","2","4","6","7","10","11","24","25","27A","27B","28","28A","29A","33","34B","35","36","36A","37"],"lines":"1, 2, 4, 6, 7, 10, 11, 24, 25, 27A, 27B, 28, 28A, 29A, 33, 34B, 35, 36, 36A, 37"},"geometry":{"type":"LineString","coordinates":[[21.891889,43.317974],[21.891877,43.317943]]}},{"type":"Feature","properties":{"mode":"bus","n":18,"arr":["1","2","4","6","7","10","11","24","25","27A","27B","28","28A","29A","33","34B","35","36A"],"lines":"1, 2, 4, 6, 7, 10, 11, 24, 25, 27A, 27B, 28, 28A, 29A, 33, 34B, 35, 36A"},"geometry":{"type":"LineString","coordinates":[[21.891889,43.317974],[21.891898,43.318029]]}},{"type":"Feature","properties":{"mode":"bus","n":22,"arr":["1","2","4","6","7","8","9","10","11","12","13","24","25","27A","27B","28","28A","29A","33","34B","35","36A"],"lines":"1, 2, 4, 6, 7, 8, 9, 10, 11, 12, 13, 24, 25, 27A, 27B, 28, 28A, 29A, 33, 34B, 35, 36A"},"geometry":{"type":"LineString","coordinates":[[21.891898,43.318029],[21.891732,43.318549]]}},{"type":"Feature","properties":{"mode":"bus","n":25,"arr":["1","2","4","5","6","7","8","9","10","11","12","13","15A","24","25","27A","27B","28","28A","29A","33","34B","35","36","36A"],"lines":"1, 2, 4, 5, 6, 7, 8, 9, 10, 11, 12, 13, 15A, 24, 25, 27A, 27B, 28, 28A, 29A, 33, 34B, 35, 36, 36A"},"geometry":{"type":"LineString","coordinates":[[21.891732,43.318549],[21.891668,43.318742]]}},{"type":"Feature","properties":{"mode":"bus","n":11,"arr":["1","3","4","10","13","19","20","20A","21","21A","34A"],"lines":"1, 3, 4, 10, 13, 19, 20, 20A, 21, 21A, 34A"},"geometry":{"type":"LineString","coordinates":[[21.927523,43.311527],[21.927647,43.311478],[21.927786,43.311494]]}},{"type":"Feature","properties":{"mode":"bus","n":7,"arr":["1","3","19","20","20A","21","21A"],"lines":"1, 3, 19, 20, 20A, 21, 21A"},"geometry":{"type":"LineString","coordinates":[[21.93522,43.310266],[21.935053,43.310239],[21.934968,43.310254],[21.934846,43.310324]]}},{"type":"Feature","properties":{"mode":"bus","n":7,"arr":["1","3","19","20","20A","21","21A"],"lines":"1, 3, 19, 20, 20A, 21, 21A"},"geometry":{"type":"LineString","coordinates":[[21.952604,43.307468],[21.948774,43.308088],[21.948336,43.308099],[21.948148,43.308083],[21.948058,43.308044],[21.947939,43.308047],[21.947844,43.308099],[21.947812,43.308152]]}},{"type":"Feature","properties":{"mode":"bus","n":7,"arr":["1","3","19","20","20A","21","21A"],"lines":"1, 3, 19, 20, 20A, 21, 21A"},"geometry":{"type":"LineString","coordinates":[[21.966329,43.305223],[21.966227,43.305175],[21.966141,43.305173],[21.966057,43.305202],[21.966001,43.305255]]}},{"type":"Feature","properties":{"mode":"bus","n":6,"arr":["1","19","20","20A","21","21A"],"lines":"1, 19, 20, 20A, 21, 21A"},"geometry":{"type":"LineString","coordinates":[[21.998818,43.300309],[21.998678,43.300347],[21.998328,43.300359],[21.996457,43.300258],[21.995636,43.300248],[21.99444,43.300348],[21.993939,43.300422],[21.983155,43.302368],[21.980171,43.302887]]}},{"type":"Feature","properties":{"mode":"bus","n":10,"arr":["2","5","14","14A","15","15A","16","17","17A","34A"],"lines":"2, 5, 14, 14A, 15, 15A, 16, 17, 17A, 34A"},"geometry":{"type":"LineString","coordinates":[[21.902857,43.327419],[21.902727,43.327434]]}},{"type":"Feature","properties":{"mode":"bus","n":9,"arr":["2","5","14","14A","15","15A","16","17","17A"],"lines":"2, 5, 14, 14A, 15, 15A, 16, 17, 17A"},"geometry":{"type":"LineString","coordinates":[[21.902727,43.327434],[21.902645,43.327403],[21.902595,43.327346]]}},{"type":"Feature","properties":{"mode":"bus","n":10,"arr":["2","5","14","14A","15","15A","16","17","17A","34B"],"lines":"2, 5, 14, 14A, 15, 15A, 16, 17, 17A, 34B"},"geometry":{"type":"LineString","coordinates":[[21.902587,43.327314],[21.902595,43.327346]]}},{"type":"Feature","properties":{"mode":"bus","n":10,"arr":["2","5","14","14A","15","15A","16","17","17A","34B"],"lines":"2, 5, 14, 14A, 15, 15A, 16, 17, 17A, 34B"},"geometry":{"type":"LineString","coordinates":[[21.902905,43.327223],[21.902934,43.32726]]}},{"type":"Feature","properties":{"mode":"bus","n":10,"arr":["2","5","14","14A","15","15A","16","17","17A","34B"],"lines":"2, 5, 14, 14A, 15, 15A, 16, 17, 17A, 34B"},"geometry":{"type":"LineString","coordinates":[[21.906686,43.328212],[21.906287,43.328126]]}},{"type":"Feature","properties":{"mode":"bus","n":9,"arr":["2","5","14A","15","15A","16","17","17A","34B"],"lines":"2, 5, 14A, 15, 15A, 16, 17, 17A, 34B"},"geometry":{"type":"LineString","coordinates":[[21.902736,43.327177],[21.902626,43.327225],[21.902587,43.327314]]}},{"type":"Feature","properties":{"mode":"bus","n":8,"arr":["2","4","8","9","11","12","24","34A"],"lines":"2, 4, 8, 9, 11, 12, 24, 34A"},"geometry":{"type":"LineString","coordinates":[[21.891668,43.318742],[21.89145,43.318679],[21.890137,43.318417],[21.890057,43.318342],[21.890042,43.318288],[21.890158,43.317954]]}},{"type":"Feature","properties":{"mode":"bus","n":5,"arr":["2","4","8","24","34B"],"lines":"2, 4, 8, 24, 34B"},"geometry":{"type":"LineString","coordinates":[[21.881366,43.314487],[21.881118,43.314342],[21.881021,43.314347],[21.880933,43.314319],[21.880872,43.314264],[21.880855,43.314195],[21.880663,43.314033]]}},{"type":"Feature","properties":{"mode":"bus","n":5,"arr":["2","4","8","24","35"],"lines":"2, 4, 8, 24, 35"},"geometry":{"type":"LineString","coordinates":[[21.876916,43.311801],[21.876878,43.311828]]}},{"type":"Feature","properties":{"mode":"bus","n":5,"arr":["2","4","8","24","35"],"lines":"2, 4, 8, 24, 35"},"geometry":{"type":"LineString","coordinates":[[21.879205,43.313314],[21.878511,43.312919],[21.877322,43.312145],[21.877184,43.311957],[21.877177,43.311877],[21.877164,43.311845],[21.877132,43.311822],[21.877039,43.311778]]}},{"type":"Feature","properties":{"mode":"bus","n":5,"arr":["2","4","8","24","35"],"lines":"2, 4, 8, 24, 35"},"geometry":{"type":"LineString","coordinates":[[21.891664,43.317572],[21.891446,43.316346],[21.891445,43.316258],[21.89144,43.316236],[21.891425,43.316219],[21.8914,43.316207],[21.891021,43.316082],[21.89075,43.316034],[21.889105,43.315964],[21.88513,43.315726],[21.88453,43.315732],[21.884254,43.315797],[21.883963,43.31569]]}},{"type":"Feature","properties":{"mode":"bus","n":6,"arr":["2","4","8","24","34A","35"],"lines":"2, 4, 8, 24, 34A, 35"},"geometry":{"type":"LineString","coordinates":[[21.881366,43.314487],[21.881238,43.314262],[21.881239,43.314148],[21.881194,43.314099],[21.881072,43.314058],[21.880946,43.314081],[21.880663,43.314033]]}},{"type":"Feature","properties":{"mode":"bus","n":8,"arr":["3","28B","29","32","32A","34A","34B","39"],"lines":"3, 28B, 29, 32, 32A, 34A, 34B, 39"},"geometry":{"type":"LineString","coordinates":[[21.870734,43.342254],[21.867825,43.34453],[21.867752,43.344596],[21.867684,43.344739],[21.867552,43.344787]]}},{"type":"Feature","properties":{"mode":"bus","n":8,"arr":["3","28B","29","32","32A","34A","34B","39"],"lines":"3, 28B, 29, 32, 32A, 34A, 34B, 39"},"geometry":{"type":"LineString","coordinates":[[21.875484,43.338497],[21.870656,43.342205]]}},{"type":"Feature","properties":{"mode":"bus","n":7,"arr":["3","29","32","32A","34A","34B","39"],"lines":"3, 29, 32, 32A, 34A, 34B, 39"},"geometry":{"type":"LineString","coordinates":[[21.867398,43.344677],[21.867443,43.344591]]}},{"type":"Feature","properties":{"mode":"bus","n":7,"arr":["3","29","32","32A","34A","34B","39"],"lines":"3, 29, 32, 32A, 34A, 34B, 39"},"geometry":{"type":"LineString","coordinates":[[21.875536,43.338557],[21.870734,43.342254]]}},{"type":"Feature","properties":{"mode":"bus","n":7,"arr":["3","29","32","32A","34A","34B","39"],"lines":"3, 29, 32, 32A, 34A, 34B, 39"},"geometry":{"type":"LineString","coordinates":[[21.870656,43.342205],[21.870509,43.342317]]}},{"type":"Feature","properties":{"mode":"bus","n":5,"arr":["4","13","18","34A","37"],"lines":"4, 13, 18, 34A, 37"},"geometry":{"type":"LineString","coordinates":[[21.927786,43.311494],[21.92788,43.311568],[21.927898,43.311617]]}},{"type":"Feature","properties":{"mode":"bus","n":6,"arr":["10","26","33","33P","36","36A"],"lines":"10, 26, 33, 33P, 36, 36A"},"geometry":{"type":"LineString","coordinates":[[21.828273,43.317778],[21.82868,43.317878],[21.828909,43.318014],[21.829032,43.318061],[21.829171,43.318063],[21.829395,43.318002],[21.829613,43.31798],[21.830681,43.318126],[21.831459,43.318178],[21.832078,43.318161],[21.834225,43.31796],[21.834669,43.317939],[21.834918,43.317979],[21.835022,43.317951],[21.835078,43.317901],[21.835337,43.317842],[21.836489,43.317711],[21.840578,43.317328],[21.840952,43.317327],[21.841021,43.31736],[21.84115,43.317363],[21.841254,43.317307],[21.841514,43.31724],[21.844154,43.316968],[21.849788,43.316269],[21.851484,43.31608],[21.852684,43.316018],[21.855017,43.316021]]}},{"type":"Feature","properties":{"mode":"bus","n":5,"arr":["10","33","36","36A","37"],"lines":"10, 33, 36, 36A, 37"},"geometry":{"type":"LineString","coordinates":[[21.841352,43.317153],[21.841251,43.317143],[21.841148,43.31709],[21.841064,43.317086],[21.840984,43.317107],[21.840911,43.317172],[21.840387,43.31724],[21.838484,43.317413],[21.835267,43.317748],[21.83505,43.317748],[21.834964,43.317707],[21.834868,43.317704],[21.834792,43.317728],[21.834728,43.317788],[21.834543,43.317827],[21.833172,43.317985],[21.831836,43.318101],[21.831376,43.318099],[21.830829,43.318063],[21.829718,43.317903],[21.829489,43.31783],[21.829386,43.317771],[21.829297,43.317682],[21.829168,43.317637],[21.829026,43.317641],[21.828904,43.317691],[21.828644,43.317743],[21.828273,43.317778]]}},{"type":"Feature","properties":{"mode":"bus","n":5,"arr":["10","33","36","36A","37"],"lines":"10, 33, 36, 36A, 37"},"geometry":{"type":"LineString","coordinates":[[21.855043,43.315819],[21.855176,43.315805],[21.855255,43.315838]]}},{"type":"Feature","properties":{"mode":"bus","n":5,"arr":["10","33","36","36A","37"],"lines":"10, 33, 36, 36A, 37"},"geometry":{"type":"LineString","coordinates":[[21.854894,43.315896],[21.854969,43.315886]]}},{"type":"Feature","properties":{"mode":"bus","n":6,"arr":["11","27A","27B","28","28A","29A"],"lines":"11, 27A, 27B, 28, 28A, 29A"},"geometry":{"type":"LineString","coordinates":[[21.883582,43.316476],[21.882438,43.317571],[21.882323,43.317692],[21.882236,43.317836],[21.882166,43.318139],[21.882121,43.319028],[21.88215,43.319844],[21.882111,43.319913],[21.882085,43.319941],[21.882046,43.31996],[21.881945,43.31999],[21.878436,43.320414],[21.868034,43.321585],[21.867742,43.321691],[21.867537,43.321844],[21.866914,43.3226],[21.866013,43.323925],[21.864486,43.32479],[21.864196,43.324796],[21.864133,43.324822]]}},{"type":"Feature","properties":{"mode":"bus","n":6,"arr":["11","27A","27B","28","28A","29A"],"lines":"11, 27A, 27B, 28, 28A, 29A"},"geometry":{"type":"LineString","coordinates":[[21.883753,43.316348],[21.883645,43.316413]]}},{"type":"Feature","properties":{"mode":"bus","n":7,"arr":["12","14A","15","16","17","17A","34B"],"lines":"12, 14A, 15, 16, 17, 17A, 34B"},"geometry":{"type":"LineString","coordinates":[[21.895581,43.331583],[21.895433,43.331621],[21.895233,43.3316],[21.895072,43.331558]]}},{"type":"Feature","properties":{"mode":"bus","n":6,"arr":["14A","15","16","17","17A","34B"],"lines":"14A, 15, 16, 17, 17A, 34B"},"geometry":{"type":"LineString","coordinates":[[21.902905,43.327223],[21.902829,43.327184],[21.902736,43.327177]]}},{"type":"Feature","properties":{"mode":"bus","n":6,"arr":["14A","15","16","17","17A","34B"],"lines":"14A, 15, 16, 17, 17A, 34B"},"geometry":{"type":"LineString","coordinates":[[21.902595,43.327346],[21.902382,43.327528],[21.902041,43.327659],[21.900268,43.328055],[21.899518,43.328334],[21.899138,43.328538],[21.898847,43.328741],[21.897223,43.330204]]}},{"type":"Feature","properties":{"mode":"bus","n":6,"arr":["29","32","32A","34A","34B","39"],"lines":"29, 32, 32A, 34A, 34B, 39"},"geometry":{"type":"LineString","coordinates":[[21.867443,43.344591],[21.867583,43.344558]]}},{"type":"Feature","properties":{"mode":"bus","n":6,"arr":["1","20","20A","21","21A","37"],"lines":"1, 20, 20A, 21, 21A, 37"},"geometry":{"type":"LineString","coordinates":[[21.970417,43.304644],[21.966609,43.305284],[21.966366,43.305345]]}},{"type":"Feature","properties":{"mode":"bus","n":7,"arr":["1","3","20","20A","21","21A","37"],"lines":"1, 3, 20, 20A, 21, 21A, 37"},"geometry":{"type":"LineString","coordinates":[[21.966039,43.305408],[21.965679,43.305442],[21.960444,43.306325],[21.952604,43.307562]]}},{"type":"Feature","properties":{"mode":"bus","n":9,"arr":["1","3","18","19","20","20A","21","21A","37"],"lines":"1, 3, 18, 19, 20, 20A, 21, 21A, 37"},"geometry":{"type":"LineString","coordinates":[[21.952604,43.307562],[21.948765,43.308168],[21.948437,43.308203],[21.94816,43.308269]]}},{"type":"Feature","properties":{"mode":"bus","n":9,"arr":["1","3","18","19","20","20A","21","21A","37"],"lines":"1, 3, 18, 19, 20, 20A, 21, 21A, 37"},"geometry":{"type":"LineString","coordinates":[[21.934846,43.310324],[21.934631,43.310393],[21.933819,43.310477]]}},{"type":"Feature","properties":{"mode":"bus","n":9,"arr":["1","3","18","19","20","20A","21","21A","37"],"lines":"1, 3, 18, 19, 20, 20A, 21, 21A, 37"},"geometry":{"type":"LineString","coordinates":[[21.937696,43.30988],[21.935472,43.310244],[21.93522,43.310266]]}},{"type":"Feature","properties":{"mode":"bus","n":6,"arr":["1","3","20","20A","21","21A"],"lines":"1, 3, 20, 20A, 21, 21A"},"geometry":{"type":"LineString","coordinates":[[21.937727,43.309957],[21.935782,43.310264],[21.935528,43.310367],[21.935356,43.310489]]}},{"type":"Feature","properties":{"mode":"bus","n":6,"arr":["1","3","20","20A","21","21A"],"lines":"1, 3, 20, 20A, 21, 21A"},"geometry":{"type":"LineString","coordinates":[[21.934848,43.31057],[21.934628,43.310502],[21.934446,43.310501],[21.933474,43.310637]]}},{"type":"Feature","properties":{"mode":"bus","n":7,"arr":["1","3","10","20","20A","21","21A"],"lines":"1, 3, 10, 20, 20A, 21, 21A"},"geometry":{"type":"LineString","coordinates":[[21.933474,43.310637],[21.932573,43.310788]]}},{"type":"Feature","properties":{"mode":"bus","n":7,"arr":["1","3","10","20","20A","21","21A"],"lines":"1, 3, 10, 20, 20A, 21, 21A"},"geometry":{"type":"LineString","coordinates":[[21.931368,43.310981],[21.928575,43.311399],[21.928239,43.311472],[21.927898,43.311617]]}},{"type":"Feature","properties":{"mode":"bus","n":6,"arr":["1","3","10","20","20A","21"],"lines":"1, 3, 10, 20, 20A, 21"},"geometry":{"type":"LineString","coordinates":[[21.932573,43.310788],[21.931368,43.310981]]}},{"type":"Feature","properties":{"mode":"bus","n":13,"arr":["1","3","4","10","13","18","19","20","20A","21","21A","34B","37"],"lines":"1, 3, 4, 10, 13, 18, 19, 20, 20A, 21, 21A, 34B, 37"},"geometry":{"type":"LineString","coordinates":[[21.925957,43.31189],[21.927058,43.311667],[21.927229,43.311657],[21.927478,43.311682]]}},{"type":"Feature","properties":{"mode":"bus","n":11,"arr":["1","3","4","10","19","20","20A","21","21A","34B","37"],"lines":"1, 3, 4, 10, 19, 20, 20A, 21, 21A, 34B, 37"},"geometry":{"type":"LineString","coordinates":[[21.925957,43.31189],[21.925671,43.311952],[21.925246,43.312081],[21.92269,43.31292]]}},{"type":"Feature","properties":{"mode":"bus","n":11,"arr":["1","3","4","10","18","20","20A","21","21A","34B","37"],"lines":"1, 3, 4, 10, 18, 20, 20A, 21, 21A, 34B, 37"},"geometry":{"type":"LineString","coordinates":[[21.92269,43.31292],[21.921146,43.313428],[21.919783,43.31397],[21.916693,43.315339]]}},{"type":"Feature","properties":{"mode":"bus","n":12,"arr":["1","3","4","10","18","19","20","20A","21","21A","34B","37"],"lines":"1, 3, 4, 10, 18, 19, 20, 20A, 21, 21A, 34B, 37"},"geometry":{"type":"LineString","coordinates":[[21.916693,43.315339],[21.914742,43.316196],[21.911505,43.317693]]}},{"type":"Feature","properties":{"mode":"bus","n":13,"arr":["1","3","4","10","18","19","20","20A","21","21A","22","34B","37"],"lines":"1, 3, 4, 10, 18, 19, 20, 20A, 21, 21A, 22, 34B, 37"},"geometry":{"type":"LineString","coordinates":[[21.911505,43.317693],[21.911359,43.31776]]}},{"type":"Feature","properties":{"mode":"bus","n":14,"arr":["1","3","4","10","18","20","20A","21","22","23","23B","23K","23L","34B"],"lines":"1, 3, 4, 10, 18, 20, 20A, 21, 22, 23, 23B, 23K, 23L, 34B"},"geometry":{"type":"LineString","coordinates":[[21.911359,43.31776],[21.911295,43.31768]]}},{"type":"Feature","properties":{"mode":"bus","n":11,"arr":["1","3","10","18","20","20A","21A","22","23","23B","23L"],"lines":"1, 3, 10, 18, 20, 20A, 21A, 22, 23, 23B, 23L"},"geometry":{"type":"LineString","coordinates":[[21.907519,43.319365],[21.911109,43.317767]]}},{"type":"Feature","properties":{"mode":"bus","n":12,"arr":["1","3","10","18","20","20A","21A","22","23","23B","23K","23L"],"lines":"1, 3, 10, 18, 20, 20A, 21A, 22, 23, 23B, 23K, 23L"},"geometry":{"type":"LineString","coordinates":[[21.911109,43.317767],[21.911295,43.31768]]}},{"type":"Feature","properties":{"mode":"bus","n":12,"arr":["1","3","10","18","20","20A","21A","22","23","23B","23K","23L"],"lines":"1, 3, 10, 18, 20, 20A, 21A, 22, 23, 23B, 23K, 23L"},"geometry":{"type":"LineString","coordinates":[[21.907519,43.319365],[21.906462,43.319823]]}},{"type":"Feature","properties":{"mode":"bus","n":15,"arr":["1","3","4","10","18","19","20","20A","21","21A","22","23","23B","23K","23L"],"lines":"1, 3, 4, 10, 18, 19, 20, 20A, 21, 21A, 22, 23, 23B, 23K, 23L"},"geometry":{"type":"LineString","coordinates":[[21.906462,43.319823],[21.906327,43.319886],[21.905878,43.319982]]}},{"type":"Feature","properties":{"mode":"bus","n":16,"arr":["1","3","4","10","18","19","20","20A","21","21A","22","23","23B","23K","23L","37"],"lines":"1, 3, 4, 10, 18, 19, 20, 20A, 21, 21A, 22, 23, 23B, 23K, 23L, 37"},"geometry":{"type":"LineString","coordinates":[[21.905878,43.319982],[21.904145,43.320173],[21.90176,43.320395]]}},{"type":"Feature","properties":{"mode":"bus","n":10,"arr":["1","3","4","10","20A","21","21A","22","23","23K"],"lines":"1, 3, 4, 10, 20A, 21, 21A, 22, 23, 23K"},"geometry":{"type":"LineString","coordinates":[[21.90176,43.320395],[21.901498,43.320445],[21.900571,43.320534]]}},{"type":"Feature","properties":{"mode":"bus","n":14,"arr":["1","2","3","4","5","10","13","14","20A","21","21A","22","23K","23L"],"lines":"1, 2, 3, 4, 5, 10, 13, 14, 20A, 21, 21A, 22, 23K, 23L"},"geometry":{"type":"LineString","coordinates":[[21.900571,43.320534],[21.900467,43.320548]]}},{"type":"Feature","properties":{"mode":"bus","n":16,"arr":["1","2","3","4","5","6","10","11","13","14","15A","20A","21A","22","23K","23L"],"lines":"1, 2, 3, 4, 5, 6, 10, 11, 13, 14, 15A, 20A, 21A, 22, 23K, 23L"},"geometry":{"type":"LineString","coordinates":[[21.900467,43.320548],[21.899839,43.320621],[21.899641,43.320605]]}},{"type":"Feature","properties":{"mode":"bus","n":24,"arr":["1","2","3","4","5","6","10","11","13","14","15A","18","19","20","20A","21","21A","22","23","23B","23K","23L","37","500"],"lines":"1, 2, 3, 4, 5, 6, 10, 11, 13, 14, 15A, 18, 19, 20, 20A, 21, 21A, 22, 23, 23B, 23K, 23L, 37, 500"},"geometry":{"type":"LineString","coordinates":[[21.899641,43.320605],[21.89681,43.320873]]}},{"type":"Feature","properties":{"mode":"bus","n":23,"arr":["1","2","3","4","5","6","10","11","13","14","15A","18","19","20","20A","21","21A","22","23","23B","23K","23L","37"],"lines":"1, 2, 3, 4, 5, 6, 10, 11, 13, 14, 15A, 18, 19, 20, 20A, 21, 21A, 22, 23, 23B, 23K, 23L, 37"},"geometry":{"type":"LineString","coordinates":[[21.89681,43.320873],[21.896122,43.320928],[21.895157,43.320927],[21.891295,43.320194]]}},{"type":"Feature","properties":{"mode":"bus","n":24,"arr":["1","2","3","4","5","6","10","11","13","14","15A","18","19","20","20A","21","21A","22","23","23B","23K","23L","26","37"],"lines":"1, 2, 3, 4, 5, 6, 10, 11, 13, 14, 15A, 18, 19, 20, 20A, 21, 21A, 22, 23, 23B, 23K, 23L, 26, 37"},"geometry":{"type":"LineString","coordinates":[[21.891295,43.320194],[21.891131,43.320169]]}},{"type":"Feature","properties":{"mode":"bus","n":16,"arr":["1","5","6","7","10","25","26","27A","27B","28","29A","33","33P","35","36","36A"],"lines":"1, 5, 6, 7, 10, 25, 26, 27A, 27B, 28, 29A, 33, 33P, 35, 36, 36A"},"geometry":{"type":"LineString","coordinates":[[21.891131,43.320169],[21.890961,43.32014]]}},{"type":"Feature","properties":{"mode":"bus","n":14,"arr":["1","5","6","10","25","26","27A","28","29A","33","33P","35","36","36A"],"lines":"1, 5, 6, 10, 25, 26, 27A, 28, 29A, 33, 33P, 35, 36, 36A"},"geometry":{"type":"LineString","coordinates":[[21.890961,43.32014],[21.887969,43.319556],[21.887941,43.319547],[21.887921,43.319533],[21.887909,43.319512],[21.887859,43.319364],[21.887707,43.319084],[21.887018,43.31789],[21.886664,43.317337]]}},{"type":"Feature","properties":{"mode":"bus","n":15,"arr":["1","5","6","10","25","26","27A","27B","28","29A","33","33P","35","36","36A"],"lines":"1, 5, 6, 10, 25, 26, 27A, 27B, 28, 29A, 33, 33P, 35, 36, 36A"},"geometry":{"type":"LineString","coordinates":[[21.886664,43.317337],[21.886651,43.317296]]}},{"type":"Feature","properties":{"mode":"bus","n":19,"arr":["1","5","6","10","11","25","26","27A","27B","28","28A","29A","33","33P","34A","34B","36","36A","37"],"lines":"1, 5, 6, 10, 11, 25, 26, 27A, 27B, 28, 28A, 29A, 33, 33P, 34A, 34B, 36, 36A, 37"},"geometry":{"type":"LineString","coordinates":[[21.884286,43.316463],[21.883817,43.316292]]}},{"type":"Feature","properties":{"mode":"bus","n":20,"arr":["1","5","6","10","11","25","26","27A","27B","28","28A","29A","33","33P","34A","34B","35","36","36A","37"],"lines":"1, 5, 6, 10, 11, 25, 26, 27A, 27B, 28, 28A, 29A, 33, 33P, 34A, 34B, 35, 36, 36A, 37"},"geometry":{"type":"LineString","coordinates":[[21.886651,43.317296],[21.884286,43.316463]]}},{"type":"Feature","properties":{"mode":"bus","n":15,"arr":["1","5","6","10","25","26","27A","27B","33","33P","34A","34B","36","36A","37"],"lines":"1, 5, 6, 10, 25, 26, 27A, 27B, 33, 33P, 34A, 34B, 36, 36A, 37"},"geometry":{"type":"LineString","coordinates":[[21.883817,43.316292],[21.883722,43.316248]]}},{"type":"Feature","properties":{"mode":"bus","n":14,"arr":["1","5","6","10","25","26","33","33P","34A","34B","35","36","36A","37"],"lines":"1, 5, 6, 10, 25, 26, 33, 33P, 34A, 34B, 35, 36, 36A, 37"},"geometry":{"type":"LineString","coordinates":[[21.878552,43.315653],[21.88151,43.315682],[21.882219,43.315725],[21.882447,43.315781],[21.883722,43.316248]]}},{"type":"Feature","properties":{"mode":"bus","n":13,"arr":["1","5","10","25","26","33","33P","34A","34B","35","36","36A","37"],"lines":"1, 5, 10, 25, 26, 33, 33P, 34A, 34B, 35, 36, 36A, 37"},"geometry":{"type":"LineString","coordinates":[[21.878324,43.315647],[21.878552,43.315653]]}},{"type":"Feature","properties":{"mode":"bus","n":12,"arr":["1","10","25","26","33","33P","34A","34B","35","36","36A","37"],"lines":"1, 10, 25, 26, 33, 33P, 34A, 34B, 35, 36, 36A, 37"},"geometry":{"type":"LineString","coordinates":[[21.877207,43.315637],[21.878324,43.315647]]}},{"type":"Feature","properties":{"mode":"bus","n":10,"arr":["1","10","25","26","33","33P","35","36","36A","37"],"lines":"1, 10, 25, 26, 33, 33P, 35, 36, 36A, 37"},"geometry":{"type":"LineString","coordinates":[[21.871802,43.315446],[21.87338,43.315552],[21.874315,43.315593],[21.877207,43.315637]]}},{"type":"Feature","properties":{"mode":"bus","n":10,"arr":["1","10","25","26","33","33P","35","36","36A","37"],"lines":"1, 10, 25, 26, 33, 33P, 35, 36, 36A, 37"},"geometry":{"type":"LineString","coordinates":[[21.865773,43.315192],[21.866622,43.315211],[21.871527,43.315427]]}},{"type":"Feature","properties":{"mode":"bus","n":9,"arr":["1","10","25","26","33","35","36","36A","37"],"lines":"1, 10, 25, 26, 33, 35, 36, 36A, 37"},"geometry":{"type":"LineString","coordinates":[[21.871527,43.315427],[21.871802,43.315446]]}},{"type":"Feature","properties":{"mode":"bus","n":6,"arr":["1","4","10","13","20A","34B"],"lines":"1, 4, 10, 13, 20A, 34B"},"geometry":{"type":"LineString","coordinates":[[21.927575,43.311769],[21.927611,43.311894]]}},{"type":"Feature","properties":{"mode":"bus","n":5,"arr":["1","3","4","10","19"],"lines":"1, 3, 4, 10, 19"},"geometry":{"type":"LineString","coordinates":[[21.911433,43.31784],[21.911359,43.31776]]}},{"type":"Feature","properties":{"mode":"bus","n":15,"arr":["1","3","4","10","19","20","20A","21","21A","22","23","23B","23K","23L","37"],"lines":"1, 3, 4, 10, 19, 20, 20A, 21, 21A, 22, 23, 23B, 23K, 23L, 37"},"geometry":{"type":"LineString","coordinates":[[21.911359,43.31776],[21.906523,43.319892]]}},{"type":"Feature","properties":{"mode":"bus","n":13,"arr":["1","3","4","10","20","20A","21","21A","22","23","23B","23K","37"],"lines":"1, 3, 4, 10, 20, 20A, 21, 21A, 22, 23, 23B, 23K, 37"},"geometry":{"type":"LineString","coordinates":[[21.906523,43.319892],[21.90628,43.319958],[21.905878,43.319982]]}},{"type":"Feature","properties":{"mode":"bus","n":5,"arr":["1","5","27A","35","36"],"lines":"1, 5, 27A, 35, 36"},"geometry":{"type":"LineString","coordinates":[[21.884235,43.316511],[21.884286,43.316463]]}},{"type":"Feature","properties":{"mode":"bus","n":9,"arr":["1","5","11","27A","27B","28","28A","29A","36"],"lines":"1, 5, 11, 27A, 27B, 28, 28A, 29A, 36"},"geometry":{"type":"LineString","coordinates":[[21.883817,43.316292],[21.883753,43.316348]]}},{"type":"Feature","properties":{"mode":"bus","n":8,"arr":["1","10","26","33","33P","35","36","36A"],"lines":"1, 10, 26, 33, 33P, 35, 36, 36A"},"geometry":{"type":"LineString","coordinates":[[21.864395,43.315286],[21.864597,43.31525],[21.865519,43.315236],[21.865773,43.315192]]}},{"type":"Feature","properties":{"mode":"bus","n":8,"arr":["1","10","26","33","33P","36","36A","37"],"lines":"1, 10, 26, 33, 33P, 36, 36A, 37"},"geometry":{"type":"LineString","coordinates":[[21.856022,43.315973],[21.857392,43.315957],[21.861032,43.315805],[21.862016,43.315666],[21.863653,43.315325]]}},{"type":"Feature","properties":{"mode":"bus","n":16,"arr":["1","6","10","11","25","27A","27B","28","28A","29A","33","34A","34B","36","36A","37"],"lines":"1, 6, 10, 11, 25, 27A, 27B, 28, 28A, 29A, 33, 34A, 34B, 36, 36A, 37"},"geometry":{"type":"LineString","coordinates":[[21.89004,43.317934],[21.887041,43.317386],[21.886651,43.317296]]}},{"type":"Feature","properties":{"mode":"bus","n":17,"arr":["1","4","6","10","11","25","27A","27B","28","28A","29A","33","34A","34B","36","36A","37"],"lines":"1, 4, 6, 10, 11, 25, 27A, 27B, 28, 28A, 29A, 33, 34A, 34B, 36, 36A, 37"},"geometry":{"type":"LineString","coordinates":[[21.890158,43.317954],[21.89004,43.317934]]}},{"type":"Feature","properties":{"mode":"bus","n":25,"arr":["1","2","4","5","6","7","9","10","11","12","13","15A","24","25","27A","27B","28","28A","29A","33","34A","34B","35","36","36A"],"lines":"1, 2, 4, 5, 6, 7, 9, 10, 11, 12, 13, 15A, 24, 25, 27A, 27B, 28, 28A, 29A, 33, 34A, 34B, 35, 36, 36A"},"geometry":{"type":"LineString","coordinates":[[21.89117,43.320068],[21.891668,43.318742]]}},{"type":"Feature","properties":{"mode":"bus","n":27,"arr":["1","2","4","5","6","7","9","10","11","12","13","14","15A","24","25","27A","27B","28","28A","29A","33","34A","34B","35","36","36A","37"],"lines":"1, 2, 4, 5, 6, 7, 9, 10, 11, 12, 13, 14, 15A, 24, 25, 27A, 27B, 28, 28A, 29A, 33, 34A, 34B, 35, 36, 36A, 37"},"geometry":{"type":"LineString","coordinates":[[21.89117,43.320068],[21.891131,43.320169]]}},{"type":"Feature","properties":{"mode":"bus","n":16,"arr":["1","2","3","4","5","10","18","19","20","20A","21","23","23B","23L","37","500"],"lines":"1, 2, 3, 4, 5, 10, 18, 19, 20, 20A, 21, 23, 23B, 23L, 37, 500"},"geometry":{"type":"LineString","coordinates":[[21.900433,43.320482],[21.899834,43.320551],[21.899641,43.320605]]}},{"type":"Feature","properties":{"mode":"bus","n":15,"arr":["1","2","3","4","10","18","19","20","20A","21","23","23B","23L","37","500"],"lines":"1, 2, 3, 4, 10, 18, 19, 20, 20A, 21, 23, 23B, 23L, 37, 500"},"geometry":{"type":"LineString","coordinates":[[21.900537,43.32047],[21.900433,43.320482]]}},{"type":"Feature","properties":{"mode":"bus","n":13,"arr":["1","3","4","10","18","19","20","20A","21","23","23B","23L","37"],"lines":"1, 3, 4, 10, 18, 19, 20, 20A, 21, 23, 23B, 23L, 37"},"geometry":{"type":"LineString","coordinates":[[21.90176,43.320395],[21.901492,43.320384],[21.900537,43.32047]]}},{"type":"Feature","properties":{"mode":"bus","n":7,"arr":["1","3","4","20","21","21A","34A"],"lines":"1, 3, 4, 20, 21, 21A, 34A"},"geometry":{"type":"LineString","coordinates":[[21.916627,43.315246],[21.911295,43.31768]]}},{"type":"Feature","properties":{"mode":"bus","n":10,"arr":["1","3","4","10","19","20","20A","21","21A","34A"],"lines":"1, 3, 4, 10, 19, 20, 20A, 21, 21A, 34A"},"geometry":{"type":"LineString","coordinates":[[21.922646,43.312859],[21.921088,43.313348],[21.920156,43.313697],[21.916627,43.315246]]}},{"type":"Feature","properties":{"mode":"bus","n":8,"arr":["1","3","10","18","20","20A","21","34A"],"lines":"1, 3, 10, 18, 20, 20A, 21, 34A"},"geometry":{"type":"LineString","coordinates":[[21.925621,43.311872],[21.922646,43.312859]]}},{"type":"Feature","properties":{"mode":"bus","n":9,"arr":["1","3","10","13","18","20","20A","21","34A"],"lines":"1, 3, 10, 13, 18, 20, 20A, 21, 34A"},"geometry":{"type":"LineString","coordinates":[[21.925799,43.311814],[21.925621,43.311872]]}},{"type":"Feature","properties":{"mode":"bus","n":9,"arr":["1","3","10","19","20","20A","21","21A","34A"],"lines":"1, 3, 10, 19, 20, 20A, 21, 21A, 34A"},"geometry":{"type":"LineString","coordinates":[[21.927187,43.311572],[21.92683,43.311596],[21.925799,43.311814]]}},{"type":"Feature","properties":{"mode":"bus","n":10,"arr":["1","3","10","13","19","20","20A","21","21A","34A"],"lines":"1, 3, 10, 13, 19, 20, 20A, 21, 21A, 34A"},"geometry":{"type":"LineString","coordinates":[[21.927187,43.311572],[21.927523,43.311527]]}},{"type":"Feature","properties":{"mode":"bus","n":10,"arr":["1","3","10","18","19","20","20A","21","21A","37"],"lines":"1, 3, 10, 18, 19, 20, 20A, 21, 21A, 37"},"geometry":{"type":"LineString","coordinates":[[21.933819,43.310477],[21.928539,43.311347],[21.927786,43.311494]]}},{"type":"Feature","properties":{"mode":"bus","n":6,"arr":["1","3","19","20","21","21A"],"lines":"1, 3, 19, 20, 21, 21A"},"geometry":{"type":"LineString","coordinates":[[21.947812,43.308152],[21.947514,43.308268],[21.947336,43.308313],[21.937696,43.30988]]}},{"type":"Feature","properties":{"mode":"bus","n":8,"arr":["1","3","18","19","20","20A","21","21A"],"lines":"1, 3, 18, 19, 20, 20A, 21, 21A"},"geometry":{"type":"LineString","coordinates":[[21.966001,43.305255],[21.965674,43.305354],[21.958472,43.306556],[21.954851,43.307134],[21.952604,43.307468]]}},{"type":"Feature","properties":{"mode":"bus","n":7,"arr":["1","18","19","20","20A","21","21A"],"lines":"1, 18, 19, 20, 20A, 21, 21A"},"geometry":{"type":"LineString","coordinates":[[21.970399,43.304559],[21.966605,43.305211],[21.966329,43.305223]]}},{"type":"Feature","properties":{"mode":"bus","n":8,"arr":["1","18","19","20","20A","21","21A","37"],"lines":"1, 18, 19, 20, 20A, 21, 21A, 37"},"geometry":{"type":"LineString","coordinates":[[21.980171,43.302887],[21.970399,43.304559]]}},{"type":"Feature","properties":{"mode":"bus","n":5,"arr":["2","15","15A","16","17"],"lines":"2, 15, 15A, 16, 17"},"geometry":{"type":"LineString","coordinates":[[21.937085,43.329833],[21.935983,43.329813],[21.935895,43.329784]]}},{"type":"Feature","properties":{"mode":"bus","n":6,"arr":["2","15","15A","16","17","17A"],"lines":"2, 15, 15A, 16, 17, 17A"},"geometry":{"type":"LineString","coordinates":[[21.935895,43.329784],[21.935238,43.329785],[21.931668,43.329654],[21.925164,43.329487]]}},{"type":"Feature","properties":{"mode":"bus","n":8,"arr":["2","15","15A","16","17","17A","34A","34B"],"lines":"2, 15, 15A, 16, 17, 17A, 34A, 34B"},"geometry":{"type":"LineString","coordinates":[[21.925164,43.329487],[21.922002,43.329392],[21.915164,43.329241],[21.914548,43.329208],[21.910266,43.329087],[21.909898,43.329027],[21.907743,43.328461],[21.906686,43.328212]]}},{"type":"Feature","properties":{"mode":"bus","n":11,"arr":["2","5","14","14A","15","15A","16","17","17A","34A","34B"],"lines":"2, 5, 14, 14A, 15, 15A, 16, 17, 17A, 34A, 34B"},"geometry":{"type":"LineString","coordinates":[[21.906287,43.328126],[21.905098,43.327853],[21.9034,43.327503]]}},{"type":"Feature","properties":{"mode":"bus","n":9,"arr":["2","5","14","14A","15","15A","16","17A","34A"],"lines":"2, 5, 14, 14A, 15, 15A, 16, 17A, 34A"},"geometry":{"type":"LineString","coordinates":[[21.9034,43.327503],[21.902857,43.327419]]}},{"type":"Feature","properties":{"mode":"bus","n":6,"arr":["2","5","6","11","14","15A"],"lines":"2, 5, 6, 11, 14, 15A"},"geometry":{"type":"LineString","coordinates":[[21.901989,43.323139],[21.902122,43.32346],[21.902306,43.323761]]}},{"type":"Feature","properties":{"mode":"bus","n":7,"arr":["2","5","6","11","13","14","15A"],"lines":"2, 5, 6, 11, 13, 14, 15A"},"geometry":{"type":"LineString","coordinates":[[21.902434,43.323803],[21.902146,43.323327],[21.901989,43.323139],[21.901082,43.321558]]}},{"type":"Feature","properties":{"mode":"bus","n":7,"arr":["2","5","6","11","13","14","15A"],"lines":"2, 5, 6, 11, 13, 14, 15A"},"geometry":{"type":"LineString","coordinates":[[21.90091,43.321231],[21.900677,43.320944],[21.900467,43.320548]]}},{"type":"Feature","properties":{"mode":"bus","n":8,"arr":["2","5","6","11","13","14","15A","500"],"lines":"2, 5, 6, 11, 13, 14, 15A, 500"},"geometry":{"type":"LineString","coordinates":[[21.901082,43.321558],[21.90091,43.321231]]}},{"type":"Feature","properties":{"mode":"bus","n":7,"arr":["2","4","8","24","34A","34B","35"],"lines":"2, 4, 8, 24, 34A, 34B, 35"},"geometry":{"type":"LineString","coordinates":[[21.883963,43.31569],[21.883031,43.315406],[21.882678,43.31527],[21.881657,43.314695],[21.881366,43.314487]]}},{"type":"Feature","properties":{"mode":"bus","n":7,"arr":["2","4","8","24","34A","34B","35"],"lines":"2, 4, 8, 24, 34A, 34B, 35"},"geometry":{"type":"LineString","coordinates":[[21.880663,43.314033],[21.879728,43.313603],[21.879205,43.313314]]}},{"type":"Feature","properties":{"mode":"bus","n":5,"arr":["2","4","7","24","35"],"lines":"2, 4, 7, 24, 35"},"geometry":{"type":"LineString","coordinates":[[21.891677,43.317659],[21.891702,43.317719],[21.891839,43.317858],[21.891877,43.317943]]}},{"type":"Feature","properties":{"mode":"bus","n":5,"arr":["2","3","23","23L","500"],"lines":"2, 3, 23, 23L, 500"},"geometry":{"type":"LineString","coordinates":[[21.900537,43.32047],[21.900571,43.320534]]}},{"type":"Feature","properties":{"mode":"bus","n":5,"arr":["2","5","13","14","500"],"lines":"2, 5, 13, 14, 500"},"geometry":{"type":"LineString","coordinates":[[21.90091,43.321231],[21.900571,43.320534]]}},{"type":"Feature","properties":{"mode":"bus","n":9,"arr":["2","5","14","15","15A","16","17","17A","34B"],"lines":"2, 5, 14, 15, 15A, 16, 17, 17A, 34B"},"geometry":{"type":"LineString","coordinates":[[21.902934,43.32726],[21.9034,43.327503]]}},{"type":"Feature","properties":{"mode":"bus","n":5,"arr":["2","15","16","17","17A"],"lines":"2, 15, 16, 17, 17A"},"geometry":{"type":"LineString","coordinates":[[21.937242,43.329766],[21.935984,43.329758],[21.935895,43.329784]]}},{"type":"Feature","properties":{"mode":"bus","n":6,"arr":["2","6","11","20A","23","23K"],"lines":"2, 6, 11, 20A, 23, 23K"},"geometry":{"type":"LineString","coordinates":[[21.892616,43.32045],[21.892578,43.320515]]}},{"type":"Feature","properties":{"mode":"bus","n":6,"arr":["3","29","32A","34A","34B","39"],"lines":"3, 29, 32A, 34A, 34B, 39"},"geometry":{"type":"LineString","coordinates":[[21.870509,43.342317],[21.868067,43.344204]]}},{"type":"Feature","properties":{"mode":"bus","n":11,"arr":["3","9","28B","29","30","31","32","32A","34A","34B","39"],"lines":"3, 9, 28B, 29, 30, 31, 32, 32A, 34A, 34B, 39"},"geometry":{"type":"LineString","coordinates":[[21.878218,43.336387],[21.875484,43.338497]]}},{"type":"Feature","properties":{"mode":"bus","n":10,"arr":["3","9","28B","29","30","31","32","32A","34A","34B"],"lines":"3, 9, 28B, 29, 30, 31, 32, 32A, 34A, 34B"},"geometry":{"type":"LineString","coordinates":[[21.882235,43.333279],[21.878218,43.336387]]}},{"type":"Feature","properties":{"mode":"bus","n":10,"arr":["3","9","29","30","31","32","32A","34A","34B","39"],"lines":"3, 9, 29, 30, 31, 32, 32A, 34A, 34B, 39"},"geometry":{"type":"LineString","coordinates":[[21.887942,43.328323],[21.886905,43.329509],[21.886278,43.330125],[21.885742,43.330575],[21.882235,43.333279]]}},{"type":"Feature","properties":{"mode":"bus","n":10,"arr":["3","9","29","30","31","32","32A","34A","34B","39"],"lines":"3, 9, 29, 30, 31, 32, 32A, 34A, 34B, 39"},"geometry":{"type":"LineString","coordinates":[[21.878923,43.335952],[21.875536,43.338557]]}},{"type":"Feature","properties":{"mode":"bus","n":5,"arr":["3","7","12","29","34B"],"lines":"3, 7, 12, 29, 34B"},"geometry":{"type":"LineString","coordinates":[[21.888034,43.328369],[21.887942,43.328323]]}},{"type":"Feature","properties":{"mode":"bus","n":23,"arr":["3","9","12","14A","15","16","17","17A","28B","29","30","31","32","32A","34B","39","5000","5001","5002","5004","5005","6000","7000"],"lines":"3, 9, 12, 14A, 15, 16, 17, 17A, 28B, 29, 30, 31, 32, 32A, 34B, 39, 5000, 5001, 5002, 5004, 5005, 6000, 7000"},"geometry":{"type":"LineString","coordinates":[[21.890016,43.326093],[21.888034,43.328369]]}},{"type":"Feature","properties":{"mode":"bus","n":10,"arr":["3","9","12","31","34B","5000","5002","5004","5005","6000"],"lines":"3, 9, 12, 31, 34B, 5000, 5002, 5004, 5005, 6000"},"geometry":{"type":"LineString","coordinates":[[21.890209,43.325494],[21.890241,43.325585],[21.890233,43.325681],[21.89017,43.32584]]}},{"type":"Feature","properties":{"mode":"bus","n":14,"arr":["3","9","12","16","23","23K","31","32","34B","5000","5002","5004","5005","6000"],"lines":"3, 9, 12, 16, 23, 23K, 31, 32, 34B, 5000, 5002, 5004, 5005, 6000"},"geometry":{"type":"LineString","coordinates":[[21.89017,43.32584],[21.890099,43.325957]]}},{"type":"Feature","properties":{"mode":"bus","n":12,"arr":["3","9","12","16","31","32","34B","5000","5002","5004","5005","6000"],"lines":"3, 9, 12, 16, 31, 32, 34B, 5000, 5002, 5004, 5005, 6000"},"geometry":{"type":"LineString","coordinates":[[21.890099,43.325957],[21.890016,43.326093]]}},{"type":"Feature","properties":{"mode":"bus","n":32,"arr":["3","7","9","12","14","19","20A","21","21A","22","23","23B","23K","23L","26","29A","30","31","32","32A","33","33P","34A","34B","35","36A","39","5000","5002","5004","5005","6000"],"lines":"3, 7, 9, 12, 14, 19, 20A, 21, 21A, 22, 23, 23B, 23K, 23L, 26, 29A, 30, 31, 32, 32A, 33, 33P, 34A, 34B, 35, 36A, 39, 5000, 5002, 5004, 5005, 6000"},"geometry":{"type":"LineString","coordinates":[[21.890204,43.325195],[21.890209,43.325494]]}},{"type":"Feature","properties":{"mode":"bus","n":28,"arr":["3","7","9","12","14","14A","19","20","20A","21","21A","22","23","23B","23K","23L","24","25","26","27A","28","29A","33","33P","34A","34B","35","36A"],"lines":"3, 7, 9, 12, 14, 14A, 19, 20, 20A, 21, 21A, 22, 23, 23B, 23K, 23L, 24, 25, 26, 27A, 28, 29A, 33, 33P, 34A, 34B, 35, 36A"},"geometry":{"type":"LineString","coordinates":[[21.890158,43.324478],[21.890204,43.325195]]}},{"type":"Feature","properties":{"mode":"bus","n":35,"arr":["3","7","9","12","14","14A","15","16","17","17A","18","19","20","20A","21","21A","22","23","23B","23K","23L","24","25","26","27A","27B","28","29A","33","33P","34A","34B","35","36A","37"],"lines":"3, 7, 9, 12, 14, 14A, 15, 16, 17, 17A, 18, 19, 20, 20A, 21, 21A, 22, 23, 23B, 23K, 23L, 24, 25, 26, 27A, 27B, 28, 29A, 33, 33P, 34A, 34B, 35, 36A, 37"},"geometry":{"type":"LineString","coordinates":[[21.890151,43.324322],[21.890158,43.324478]]}},{"type":"Feature","properties":{"mode":"bus","n":36,"arr":["3","7","9","12","14","14A","15","16","17","17A","18","19","20","20A","21","21A","22","23","23B","23K","23L","24","25","26","27A","27B","28","28A","29A","33","33P","34A","34B","35","36A","37"],"lines":"3, 7, 9, 12, 14, 14A, 15, 16, 17, 17A, 18, 19, 20, 20A, 21, 21A, 22, 23, 23B, 23K, 23L, 24, 25, 26, 27A, 27B, 28, 28A, 29A, 33, 33P, 34A, 34B, 35, 36A, 37"},"geometry":{"type":"LineString","coordinates":[[21.890113,43.322913],[21.890151,43.324322]]}},{"type":"Feature","properties":{"mode":"bus","n":31,"arr":["3","7","9","12","14","18","19","20","20A","21","21A","22","23","23B","23K","23L","24","25","26","27A","27B","28","28A","29A","33","33P","34A","34B","35","36A","37"],"lines":"3, 7, 9, 12, 14, 18, 19, 20, 20A, 21, 21A, 22, 23, 23B, 23K, 23L, 24, 25, 26, 27A, 27B, 28, 28A, 29A, 33, 33P, 34A, 34B, 35, 36A, 37"},"geometry":{"type":"LineString","coordinates":[[21.891087,43.320288],[21.890113,43.322913]]}},{"type":"Feature","properties":{"mode":"bus","n":32,"arr":["3","7","9","10","12","14","18","19","20","20A","21","21A","22","23","23B","23K","23L","24","25","26","27A","27B","28","28A","29A","33","33P","34A","34B","35","36A","37"],"lines":"3, 7, 9, 10, 12, 14, 18, 19, 20, 20A, 21, 21A, 22, 23, 23B, 23K, 23L, 24, 25, 26, 27A, 27B, 28, 28A, 29A, 33, 33P, 34A, 34B, 35, 36A, 37"},"geometry":{"type":"LineString","coordinates":[[21.891131,43.320169],[21.891087,43.320288]]}},{"type":"Feature","properties":{"mode":"bus","n":5,"arr":["3","13","18","19","21A"],"lines":"3, 13, 18, 19, 21A"},"geometry":{"type":"LineString","coordinates":[[21.925957,43.31189],[21.925885,43.311881],[21.925799,43.311814]]}},{"type":"Feature","properties":{"mode":"bus","n":5,"arr":["3","6","11","21A","23K"],"lines":"3, 6, 11, 21A, 23K"},"geometry":{"type":"LineString","coordinates":[[21.897763,43.320782],[21.897752,43.320874]]}},{"type":"Feature","properties":{"mode":"bus","n":19,"arr":["3","7","9","28B","29","30","31","32","32A","34A","34B","39","5000","5001","5002","5004","5005","6000","7000"],"lines":"3, 7, 9, 28B, 29, 30, 31, 32, 32A, 34A, 34B, 39, 5000, 5001, 5002, 5004, 5005, 6000, 7000"},"geometry":{"type":"LineString","coordinates":[[21.888034,43.328369],[21.886859,43.329691],[21.886373,43.330177],[21.885829,43.330623]]}},{"type":"Feature","properties":{"mode":"bus","n":18,"arr":["3","9","28B","29","30","31","32","32A","34A","34B","39","5000","5001","5002","5004","5005","6000","7000"],"lines":"3, 9, 28B, 29, 30, 31, 32, 32A, 34A, 34B, 39, 5000, 5001, 5002, 5004, 5005, 6000, 7000"},"geometry":{"type":"LineString","coordinates":[[21.885829,43.330623],[21.882298,43.333331]]}},{"type":"Feature","properties":{"mode":"bus","n":17,"arr":["3","9","29","30","31","32","32A","34A","34B","39","5000","5001","5002","5004","5005","6000","7000"],"lines":"3, 9, 29, 30, 31, 32, 32A, 34A, 34B, 39, 5000, 5001, 5002, 5004, 5005, 6000, 7000"},"geometry":{"type":"LineString","coordinates":[[21.882298,43.333331],[21.881417,43.334015]]}},{"type":"Feature","properties":{"mode":"bus","n":11,"arr":["3","9","29","30","31","32","32A","34A","34B","39","5000"],"lines":"3, 9, 29, 30, 31, 32, 32A, 34A, 34B, 39, 5000"},"geometry":{"type":"LineString","coordinates":[[21.881417,43.334015],[21.878923,43.335952]]}},{"type":"Feature","properties":{"mode":"bus","n":10,"arr":["3","7","9","12","30","31","32","32A","34A","39"],"lines":"3, 7, 9, 12, 30, 31, 32, 32A, 34A, 39"},"geometry":{"type":"LineString","coordinates":[[21.888849,43.327286],[21.887942,43.328323]]}},{"type":"Feature","properties":{"mode":"bus","n":7,"arr":["3","7","9","12","30","32A","34A"],"lines":"3, 7, 9, 12, 30, 32A, 34A"},"geometry":{"type":"LineString","coordinates":[[21.889906,43.326062],[21.888849,43.327286]]}},{"type":"Feature","properties":{"mode":"bus","n":8,"arr":["3","7","9","12","30","32A","34A","39"],"lines":"3, 7, 9, 12, 30, 32A, 34A, 39"},"geometry":{"type":"LineString","coordinates":[[21.890052,43.32584],[21.889906,43.326062]]}},{"type":"Feature","properties":{"mode":"bus","n":9,"arr":["3","7","9","12","23B","30","32A","34A","39"],"lines":"3, 7, 9, 12, 23B, 30, 32A, 34A, 39"},"geometry":{"type":"LineString","coordinates":[[21.890118,43.325727],[21.890052,43.32584]]}},{"type":"Feature","properties":{"mode":"bus","n":25,"arr":["3","7","9","12","14","19","20A","21","21A","22","23","23B","23K","23L","26","29A","30","32","32A","33","33P","34A","35","36A","39"],"lines":"3, 7, 9, 12, 14, 19, 20A, 21, 21A, 22, 23, 23B, 23K, 23L, 26, 29A, 30, 32, 32A, 33, 33P, 34A, 35, 36A, 39"},"geometry":{"type":"LineString","coordinates":[[21.890209,43.325494],[21.890118,43.325727]]}},{"type":"Feature","properties":{"mode":"bus","n":5,"arr":["4","6","11","34A","34B"],"lines":"4, 6, 11, 34A, 34B"},"geometry":{"type":"LineString","coordinates":[[21.929111,43.319159],[21.92909,43.319421],[21.928935,43.319767],[21.927648,43.321682],[21.927117,43.322428]]}},{"type":"Feature","properties":{"mode":"bus","n":5,"arr":["4","19","21","23K","23L"],"lines":"4, 19, 21, 23K, 23L"},"geometry":{"type":"LineString","coordinates":[[21.906523,43.319892],[21.906462,43.319823]]}},{"type":"Feature","properties":{"mode":"bus","n":7,"arr":["5","10","26","33P","34A","36","36A"],"lines":"5, 10, 26, 33P, 34A, 36, 36A"},"geometry":{"type":"LineString","coordinates":[[21.878323,43.31574],[21.878324,43.315647]]}},{"type":"Feature","properties":{"mode":"bus","n":5,"arr":["6","18","20A","21A","23K"],"lines":"6, 18, 20A, 21A, 23K"},"geometry":{"type":"LineString","coordinates":[[21.895039,43.320911],[21.895019,43.320969]]}},{"type":"Feature","properties":{"mode":"bus","n":5,"arr":["7","9","12","34A","34B"],"lines":"7, 9, 12, 34A, 34B"},"geometry":{"type":"LineString","coordinates":[[21.893977,43.312492],[21.893819,43.312076]]}},{"type":"Feature","properties":{"mode":"bus","n":6,"arr":["8","22","23","23B","23K","23L"],"lines":"8, 22, 23, 23B, 23K, 23L"},"geometry":{"type":"LineString","coordinates":[[21.916395,43.300846],[21.916527,43.301012],[21.917984,43.302317],[21.919479,43.30357],[21.919794,43.30379],[21.921464,43.305199],[21.921544,43.305411],[21.921615,43.306613],[21.921653,43.306839],[21.922024,43.307496],[21.922593,43.308328],[21.922629,43.308471],[21.922598,43.308614],[21.921906,43.310047],[21.921638,43.310693],[21.921388,43.31121],[21.921374,43.311229],[21.921352,43.311241],[21.921323,43.311245],[21.921071,43.311252],[21.919198,43.311513],[21.918379,43.311589],[21.911243,43.311875]]}},{"type":"Feature","properties":{"mode":"bus","n":7,"arr":["10","26","33","33P","36","36A","37"],"lines":"10, 26, 33, 33P, 36, 36A, 37"},"geometry":{"type":"LineString","coordinates":[[21.820042,43.316619],[21.823766,43.317112],[21.826396,43.317518],[21.828273,43.317778]]}},{"type":"Feature","properties":{"mode":"bus","n":6,"arr":["10","33","33P","36","36A","37"],"lines":"10, 33, 33P, 36, 36A, 37"},"geometry":{"type":"LineString","coordinates":[[21.817959,43.316405],[21.820042,43.316619]]}},{"type":"Feature","properties":{"mode":"bus","n":7,"arr":["10","25","33","33P","36","36A","37"],"lines":"10, 25, 33, 33P, 36, 36A, 37"},"geometry":{"type":"LineString","coordinates":[[21.817676,43.316375],[21.817959,43.316405]]}},{"type":"Feature","properties":{"mode":"bus","n":5,"arr":["33","33P","36","36A","37"],"lines":"33, 33P, 36, 36A, 37"},"geometry":{"type":"LineString","coordinates":[[21.784445,43.312387],[21.785175,43.312449],[21.788945,43.312683],[21.790113,43.312791],[21.795995,43.313616],[21.798601,43.314005],[21.805944,43.314995],[21.809331,43.315412],[21.812379,43.315814],[21.817676,43.316375]]}},{"type":"Feature","properties":{"mode":"bus","n":5,"arr":["11","27A","27B","28","28A"],"lines":"11, 27A, 27B, 28, 28A"},"geometry":{"type":"LineString","coordinates":[[21.864133,43.324822],[21.86407,43.324816]]}},{"type":"Feature","properties":{"mode":"bus","n":8,"arr":["11","27A","27B","28","28A","29A","35","36"],"lines":"11, 27A, 27B, 28, 28A, 29A, 35, 36"},"geometry":{"type":"LineString","coordinates":[[21.883645,43.316413],[21.883582,43.316476]]}},{"type":"Feature","properties":{"mode":"bus","n":8,"arr":["12","14A","15","16","17","17A","34A","34B"],"lines":"12, 14A, 15, 16, 17, 17A, 34A, 34B"},"geometry":{"type":"LineString","coordinates":[[21.895072,43.331558],[21.89146,43.329878],[21.888034,43.328369]]}},{"type":"Feature","properties":{"mode":"bus","n":19,"arr":["16","17","17A","20","20A","21","21A","22","23","23B","23K","24","27A","27B","28","29A","33","35","37"],"lines":"16, 17, 17A, 20, 20A, 21, 21A, 22, 23, 23B, 23K, 24, 27A, 27B, 28, 29A, 33, 35, 37"},"geometry":{"type":"LineString","coordinates":[[21.890512,43.324627],[21.890504,43.324508],[21.890497,43.324488],[21.890479,43.324476],[21.890452,43.324473],[21.890294,43.324476]]}},{"type":"Feature","properties":{"mode":"bus","n":18,"arr":["16","17","17A","20","20A","21","21A","22","23","23B","24","27A","27B","28","29A","33","35","37"],"lines":"16, 17, 17A, 20, 20A, 21, 21A, 22, 23, 23B, 24, 27A, 27B, 28, 29A, 33, 35, 37"},"geometry":{"type":"LineString","coordinates":[[21.890512,43.324627],[21.890519,43.324865]]}},{"type":"Feature","properties":{"mode":"bus","n":10,"arr":["16","17A","20","21","22","23B","24","27B","31","37"],"lines":"16, 17A, 20, 21, 22, 23B, 24, 27B, 31, 37"},"geometry":{"type":"LineString","coordinates":[[21.890519,43.324865],[21.890517,43.325186]]}},{"type":"Feature","properties":{"mode":"bus","n":20,"arr":["14","20A","21","21A","22","23","23K","23L","28B","29","29A","31","32","32A","33","33P","36A","39","5001","7000"],"lines":"14, 20A, 21, 21A, 22, 23, 23K, 23L, 28B, 29, 29A, 31, 32, 32A, 33, 33P, 36A, 39, 5001, 7000"},"geometry":{"type":"LineString","coordinates":[[21.890517,43.325186],[21.890505,43.325301]]}},{"type":"Feature","properties":{"mode":"bus","n":23,"arr":["14","14A","15","17","20A","21","21A","22","23","23K","23L","28B","29","29A","31","32","32A","33","33P","36A","39","5001","7000"],"lines":"14, 14A, 15, 17, 20A, 21, 21A, 22, 23, 23K, 23L, 28B, 29, 29A, 31, 32, 32A, 33, 33P, 36A, 39, 5001, 7000"},"geometry":{"type":"LineString","coordinates":[[21.890505,43.325301],[21.890462,43.325487]]}},{"type":"Feature","properties":{"mode":"bus","n":24,"arr":["14","14A","15","16","17","20A","21","21A","22","23","23K","23L","28B","29","29A","31","32","32A","33","33P","36A","39","5001","7000"],"lines":"14, 14A, 15, 16, 17, 20A, 21, 21A, 22, 23, 23K, 23L, 28B, 29, 29A, 31, 32, 32A, 33, 33P, 36A, 39, 5001, 7000"},"geometry":{"type":"LineString","coordinates":[[21.890462,43.325487],[21.890395,43.325776]]}},{"type":"Feature","properties":{"mode":"bus","n":25,"arr":["14","14A","15","16","17","20A","21","21A","22","23","23K","23L","28B","29","29A","30","31","32","32A","33","33P","36A","39","5001","7000"],"lines":"14, 14A, 15, 16, 17, 20A, 21, 21A, 22, 23, 23K, 23L, 28B, 29, 29A, 30, 31, 32, 32A, 33, 33P, 36A, 39, 5001, 7000"},"geometry":{"type":"LineString","coordinates":[[21.890395,43.325776],[21.890391,43.325904]]}},{"type":"Feature","properties":{"mode":"bus","n":15,"arr":["14","16","19","20A","21","21A","22","23","23B","23K","23L","29A","33","33P","36A"],"lines":"14, 16, 19, 20A, 21, 21A, 22, 23, 23B, 23K, 23L, 29A, 33, 33P, 36A"},"geometry":{"type":"LineString","coordinates":[[21.890391,43.325904],[21.8903,43.325903]]}},{"type":"Feature","properties":{"mode":"bus","n":16,"arr":["14","16","19","20A","21","21A","22","23","23B","23K","23L","29A","33","33P","35","36A"],"lines":"14, 16, 19, 20A, 21, 21A, 22, 23, 23B, 23K, 23L, 29A, 33, 33P, 35, 36A"},"geometry":{"type":"LineString","coordinates":[[21.8903,43.325903],[21.89017,43.32584]]}},{"type":"Feature","properties":{"mode":"bus","n":16,"arr":["14","19","20A","21","21A","22","23","23B","23K","23L","29A","32","33","33P","35","36A"],"lines":"14, 19, 20A, 21, 21A, 22, 23, 23B, 23K, 23L, 29A, 32, 33, 33P, 35, 36A"},"geometry":{"type":"LineString","coordinates":[[21.890144,43.325801],[21.89017,43.32584]]}},{"type":"Feature","properties":{"mode":"bus","n":17,"arr":["14","19","20A","21","21A","22","23","23B","23K","23L","26","29A","32","33","33P","35","36A"],"lines":"14, 19, 20A, 21, 21A, 22, 23, 23B, 23K, 23L, 26, 29A, 32, 33, 33P, 35, 36A"},"geometry":{"type":"LineString","coordinates":[[21.890144,43.325801],[21.890118,43.325727]]}},{"type":"Feature","properties":{"mode":"bus","n":6,"arr":["14","14A","15","16","17","17A"],"lines":"14, 14A, 15, 16, 17, 17A"},"geometry":{"type":"LineString","coordinates":[[21.890308,43.322939],[21.892477,43.323194],[21.893997,43.323187],[21.895321,43.323215],[21.895541,43.323269],[21.8971,43.323893],[21.897615,43.324352],[21.898115,43.324905],[21.899091,43.325549],[21.899507,43.325789],[21.900184,43.326116],[21.901692,43.326691],[21.902476,43.327187],[21.902587,43.327314]]}},{"type":"Feature","properties":{"mode":"bus","n":5,"arr":["14","15","16","17","17A"],"lines":"14, 15, 16, 17, 17A"},"geometry":{"type":"LineString","coordinates":[[21.890271,43.322933],[21.890308,43.322939]]}},{"type":"Feature","properties":{"mode":"bus","n":6,"arr":["14","15","16","17","17A","25"],"lines":"14, 15, 16, 17, 17A, 25"},"geometry":{"type":"LineString","coordinates":[[21.890113,43.322913],[21.890271,43.322933]]}},{"type":"Feature","properties":{"mode":"bus","n":13,"arr":["14A","15","17","17A","28B","29","30","31","32","32A","39","5001","7000"],"lines":"14A, 15, 17, 17A, 28B, 29, 30, 31, 32, 32A, 39, 5001, 7000"},"geometry":{"type":"LineString","coordinates":[[21.890391,43.325904],[21.890249,43.326007],[21.890016,43.326093]]}},{"type":"Feature","properties":{"mode":"bus","n":7,"arr":["14A","15","16","17","17A","34A","34B"],"lines":"14A, 15, 16, 17, 17A, 34A, 34B"},"geometry":{"type":"LineString","coordinates":[[21.897223,43.330204],[21.895884,43.33143],[21.89571,43.331542],[21.895581,43.331583]]}},{"type":"Feature","properties":{"mode":"bus","n":20,"arr":["15","16","17","17A","20","20A","21","21A","22","23","23B","23K","24","27A","27B","28","29A","33","35","37"],"lines":"15, 16, 17, 17A, 20, 20A, 21, 21A, 22, 23, 23B, 23K, 24, 27A, 27B, 28, 29A, 33, 35, 37"},"geometry":{"type":"LineString","coordinates":[[21.890294,43.324476],[21.890158,43.324478]]}},{"type":"Feature","properties":{"mode":"bus","n":5,"arr":["22","23","23B","23K","23L"],"lines":"22, 23, 23B, 23K, 23L"},"geometry":{"type":"LineString","coordinates":[[21.927366,43.280621],[21.927148,43.280702],[21.926981,43.280717],[21.926725,43.280776],[21.925779,43.281191],[21.925613,43.281286],[21.924161,43.282683],[21.923621,43.283157],[21.922999,43.283459],[21.922354,43.283954],[21.921755,43.284298],[21.921006,43.284616],[21.920214,43.285177],[21.919994,43.285414],[21.919348,43.286628],[21.918974,43.287233],[21.918442,43.287935],[21.918229,43.288614],[21.917893,43.289026],[21.917436,43.289998],[21.917377,43.290201],[21.916906,43.293086],[21.916584,43.294854],[21.916365,43.295631],[21.916204,43.296352],[21.916174,43.296662],[21.91627,43.300226],[21.916347,43.300714],[21.916395,43.300846]]}},{"type":"Feature","properties":{"mode":"bus","n":7,"arr":["22","23","23B","23K","23L","34A","34B"],"lines":"22, 23, 23B, 23K, 23L, 34A, 34B"},"geometry":{"type":"LineString","coordinates":[[21.911295,43.31768],[21.910289,43.316489],[21.910205,43.316336],[21.910195,43.316213],[21.911221,43.312231],[21.911243,43.311875]]}},{"type":"Feature","properties":{"mode":"bus","n":5,"arr":["27A","27B","28","28A","29A"],"lines":"27A, 27B, 28, 28A, 29A"},"geometry":{"type":"LineString","coordinates":[[21.863954,43.32482],[21.86348,43.324722],[21.86314,43.324536],[21.862813,43.324397],[21.862724,43.324374],[21.862638,43.324379],[21.862611,43.324384],[21.862591,43.324396],[21.862578,43.324414],[21.862312,43.325046],[21.862264,43.325097],[21.862021,43.325219],[21.861469,43.32533],[21.861292,43.325343],[21.860256,43.325279],[21.859215,43.325247],[21.85723,43.325357],[21.85588,43.325647],[21.852829,43.326083],[21.851888,43.32632],[21.851644,43.326356],[21.850006,43.32642],[21.849636,43.326459],[21.846507,43.327187],[21.846331,43.327262],[21.845976,43.327477],[21.845679,43.327588],[21.845274,43.327675],[21.843527,43.327845],[21.843406,43.32789],[21.843249,43.328],[21.843063,43.328225],[21.842871,43.328327],[21.842649,43.328389],[21.8417,43.328469],[21.840368,43.328457],[21.838565,43.32824],[21.837089,43.328023],[21.834563,43.327712],[21.834248,43.327728],[21.833683,43.32786],[21.833499,43.328011],[21.833398,43.328246],[21.833227,43.329461],[21.83316,43.329571],[21.832969,43.329709],[21.832591,43.32975],[21.832206,43.329738],[21.831936,43.329754],[21.830287,43.33001],[21.828167,43.330224],[21.82739,43.330473],[21.826787,43.330622],[21.826501,43.330718],[21.826397,43.330764],[21.825816,43.33115],[21.825776,43.331167],[21.82573,43.331171],[21.825372,43.331153],[21.824664,43.33116],[21.824579,43.331215],[21.824497,43.331312],[21.824446,43.331459],[21.824392,43.33181],[21.824292,43.332101],[21.823959,43.332598],[21.823679,43.332879],[21.823384,43.333167],[21.823032,43.333455],[21.821769,43.334279],[21.821245,43.334884],[21.820948,43.335055],[21.820666,43.335156],[21.820454,43.335295],[21.819178,43.336619],[21.819035,43.33683],[21.818852,43.337597],[21.818654,43.338202],[21.818453,43.338672],[21.818009,43.339551],[21.817846,43.339782],[21.817687,43.339946],[21.817383,43.340145],[21.816943,43.340299],[21.816598,43.340362],[21.815774,43.340444],[21.815503,43.340505],[21.815234,43.340643],[21.815082,43.340771],[21.814981,43.340906],[21.814899,43.341156],[21.814946,43.341442],[21.815147,43.341863],[21.81596,43.343919],[21.816049,43.344237],[21.816068,43.344694],[21.815059,43.347317],[21.814862,43.348269],[21.814577,43.348874],[21.81424,43.349131],[21.813566,43.349521],[21.812296,43.35019],[21.811354,43.350622],[21.810844,43.350918],[21.810218,43.351129],[21.809466,43.351571],[21.808833,43.352112],[21.807805,43.353507],[21.807569,43.353708],[21.807362,43.353833],[21.807165,43.35402],[21.806947,43.354333],[21.80672,43.354491],[21.806393,43.35462],[21.806214,43.35474],[21.805861,43.355112],[21.804409,43.35623],[21.804124,43.356329],[21.803806,43.356372],[21.803513,43.356335],[21.802625,43.356124],[21.802373,43.35603],[21.802224,43.356],[21.802076,43.356023],[21.801391,43.356408],[21.800278,43.35741],[21.799745,43.357858],[21.798847,43.358478],[21.798447,43.358713],[21.797782,43.35902],[21.79692,43.35934]]}},{"type":"Feature","properties":{"mode":"bus","n":5,"arr":["28B","29","32","32A","39"],"lines":"28B, 29, 32, 32A, 39"},"geometry":{"type":"LineString","coordinates":[[21.867552,43.344787],[21.867433,43.344843],[21.865796,43.346128],[21.864018,43.347469],[21.862456,43.348365],[21.862088,43.348548],[21.861405,43.348849],[21.860279,43.349268],[21.860181,43.34934],[21.860064,43.349481],[21.860047,43.349568],[21.860166,43.349939],[21.860172,43.350137],[21.860066,43.350377],[21.859822,43.350585],[21.846406,43.360905],[21.845917,43.361232],[21.836082,43.36889],[21.833522,43.370793],[21.829598,43.373822],[21.82865,43.374352],[21.828373,43.37447],[21.826848,43.374799],[21.826685,43.374859],[21.826539,43.374953],[21.822459,43.38043],[21.820937,43.382406],[21.81974,43.384036],[21.808564,43.398815],[21.808365,43.398974],[21.80805,43.399107],[21.806398,43.399501],[21.806116,43.399647],[21.805906,43.399847],[21.805764,43.400154],[21.805762,43.400404],[21.805868,43.400658],[21.806286,43.401137],[21.806448,43.401348],[21.806522,43.401493],[21.80659,43.401808],[21.80664,43.402685]]}},{"type":"Feature","properties":{"mode":"bus","n":5,"arr":["29","32A","34A","34B","39"],"lines":"29, 32A, 34A, 34B, 39"},"geometry":{"type":"LineString","coordinates":[[21.867583,43.344558],[21.868067,43.344204]]}}]}